[{"OBJECT_NAME":"STARLINK-3760","OBJECT_ID":"2022-041AP","EPOCH":"2026-03-19T15:07:47.723808","MEAN_MOTION":15.08835748,"ECCENTRICITY":0.00014657,"INCLINATION":53.2178,"RA_OF_ASC_NODE":54.1061,"ARG_OF_PERICENTER":80.5447,"MEAN_ANOMALY":279.5711,"EPHEMERIS_TYPE":0,"CLASSIFICATION_TYPE":"U","NORAD_CAT_ID":52298,"ELEMENT_SET_NO":999,"REV_AT_EPOCH":21601,"BSTAR":5.579551e-6,"MEAN_MOTION_DOT":-1.99e-6,"MEAN_MOTION_DDOT":0},{"OBJECT_NAME":"STARLINK-3769","OBJECT_ID":"2022-041AR","EPOCH":"2026-03-19T15:50:14.961696","MEAN_MOTION":15.08840332,"ECCENTRICITY":0.00014167,"INCLINATION":53.2181,"RA_OF_ASC_NODE":54.3605,"ARG_OF_PERICENTER":80.5141,"MEAN_ANOMALY":279.6011,"EPHEMERIS_TYPE":0,"CLASSIFICATION_TYPE":"U","NORAD_CAT_ID":52300,"ELEMENT_SET_NO":999,"REV_AT_EPOCH":21723,"BSTAR":3.7509359e-5,"MEAN_MOTION_DOT":3.09e-6,"MEAN_MOTION_DDOT":0},{"OBJECT_NAME":"STARLINK-3768","OBJECT_ID":"2022-041AS","EPOCH":"2026-03-19T05:09:01.654272","MEAN_MOTION":15.08848043,"ECCENTRICITY":0.00015072,"INCLINATION":53.2181,"RA_OF_ASC_NODE":56.3597,"ARG_OF_PERICENTER":95.0349,"MEAN_ANOMALY":265.0816,"EPHEMERIS_TYPE":0,"CLASSIFICATION_TYPE":"U","NORAD_CAT_ID":52301,"ELEMENT_SET_NO":999,"REV_AT_EPOCH":21594,"BSTAR":0.00010862221,"MEAN_MOTION_DOT":1.442e-5,"MEAN_MOTION_DDOT":0},{"OBJECT_NAME":"STARLINK-3564","OBJECT_ID":"2022-041AT","EPOCH":"2026-03-19T21:57:13.390848","MEAN_MOTION":15.08837544,"ECCENTRICITY":0.00015693,"INCLINATION":53.219,"RA_OF_ASC_NODE":43.2169,"ARG_OF_PERICENTER":90.5401,"MEAN_ANOMALY":269.5771,"EPHEMERIS_TYPE":0,"CLASSIFICATION_TYPE":"U","NORAD_CAT_ID":52302,"ELEMENT_SET_NO":999,"REV_AT_EPOCH":21618,"BSTAR":1.4361634e-5,"MEAN_MOTION_DOT":-5.9e-7,"MEAN_MOTION_DDOT":0},{"OBJECT_NAME":"STARLINK-3742","OBJECT_ID":"2022-041AU","EPOCH":"2026-03-19T15:55:32.828160","MEAN_MOTION":15.08841677,"ECCENTRICITY":0.00014124,"INCLINATION":53.2177,"RA_OF_ASC_NODE":54.3441,"ARG_OF_PERICENTER":89.9338,"MEAN_ANOMALY":270.1816,"EPHEMERIS_TYPE":0,"CLASSIFICATION_TYPE":"U","NORAD_CAT_ID":52303,"ELEMENT_SET_NO":999,"REV_AT_EPOCH":21723,"BSTAR":3.4813764e-5,"MEAN_MOTION_DOT":2.66e-6,"MEAN_MOTION_DDOT":0},{"OBJECT_NAME":"STARLINK-3744","OBJECT_ID":"2022-041AV","EPOCH":"2026-03-19T07:33:27.314208","MEAN_MOTION":15.08843011,"ECCENTRICITY":0.00014595,"INCLINATION":53.2182,"RA_OF_ASC_NODE":45.9099,"ARG_OF_PERICENTER":89.9687,"MEAN_ANOMALY":270.1472,"EPHEMERIS_TYPE":0,"CLASSIFICATION_TYPE":"U","NORAD_CAT_ID":52304,"ELEMENT_SET_NO":999,"REV_AT_EPOCH":21609,"BSTAR":-2.635717e-6,"MEAN_MOTION_DOT":-3.3e-6,"MEAN_MOTION_DDOT":0},{"OBJECT_NAME":"STARLINK-3724","OBJECT_ID":"2022-041AW","EPOCH":"2026-03-19T22:22:24.720384","MEAN_MOTION":15.08847897,"ECCENTRICITY":0.00016133,"INCLINATION":53.2181,"RA_OF_ASC_NODE":53.2439,"ARG_OF_PERICENTER":84.4792,"MEAN_ANOMALY":275.6384,"EPHEMERIS_TYPE":0,"CLASSIFICATION_TYPE":"U","NORAD_CAT_ID":52305,"ELEMENT_SET_NO":999,"REV_AT_EPOCH":21605,"BSTAR":-0.00023669566,"MEAN_MOTION_DOT":-4.054e-5,"MEAN_MOTION_DDOT":0},{"OBJECT_NAME":"STARLINK-3747","OBJECT_ID":"2022-041AX","EPOCH":"2026-03-19T07:28:08.856768","MEAN_MOTION":15.08844276,"ECCENTRICITY":0.00013854,"INCLINATION":53.2182,"RA_OF_ASC_NODE":45.9259,"ARG_OF_PERICENTER":90.3231,"MEAN_ANOMALY":269.792,"EPHEMERIS_TYPE":0,"CLASSIFICATION_TYPE":"U","NORAD_CAT_ID":52306,"ELEMENT_SET_NO":999,"REV_AT_EPOCH":21731,"BSTAR":6.3352013e-5,"MEAN_MOTION_DOT":7.21e-6,"MEAN_MOTION_DDOT":0},{"OBJECT_NAME":"STARLINK-3755","OBJECT_ID":"2022-041AY","EPOCH":"2026-03-19T22:06:30.041856","MEAN_MOTION":15.08848265,"ECCENTRICITY":0.00014108,"INCLINATION":53.2177,"RA_OF_ASC_NODE":53.1876,"ARG_OF_PERICENTER":80.0459,"MEAN_ANOMALY":280.0693,"EPHEMERIS_TYPE":0,"CLASSIFICATION_TYPE":"U","NORAD_CAT_ID":52307,"ELEMENT_SET_NO":999,"REV_AT_EPOCH":21605,"BSTAR":1.6570027e-5,"MEAN_MOTION_DOT":-2.4e-7,"MEAN_MOTION_DDOT":0},{"OBJECT_NAME":"STARLINK-3756","OBJECT_ID":"2022-041BA","EPOCH":"2026-03-19T15:19:46.715232","MEAN_MOTION":15.08843551,"ECCENTRICITY":0.0001405,"INCLINATION":53.2179,"RA_OF_ASC_NODE":44.4556,"ARG_OF_PERICENTER":86.9028,"MEAN_ANOMALY":273.2125,"EPHEMERIS_TYPE":0,"CLASSIFICATION_TYPE":"U","NORAD_CAT_ID":52309,"ELEMENT_SET_NO":999,"REV_AT_EPOCH":21736,"BSTAR":3.2056e-5,"MEAN_MOTION_DOT":2.22e-6,"MEAN_MOTION_DDOT":0},{"OBJECT_NAME":"STARLINK-3688","OBJECT_ID":"2022-041BB","EPOCH":"2026-03-19T15:14:30.834240","MEAN_MOTION":15.0883707,"ECCENTRICITY":0.00016264,"INCLINATION":53.2181,"RA_OF_ASC_NODE":44.539,"ARG_OF_PERICENTER":83.3585,"MEAN_ANOMALY":276.7592,"EPHEMERIS_TYPE":0,"CLASSIFICATION_TYPE":"U","NORAD_CAT_ID":52310,"ELEMENT_SET_NO":999,"REV_AT_EPOCH":21736,"BSTAR":0.00014184578,"MEAN_MOTION_DOT":1.97e-5,"MEAN_MOTION_DDOT":0},{"OBJECT_NAME":"STARLINK-3750","OBJECT_ID":"2022-041BC","EPOCH":"2026-03-19T21:30:44.296128","MEAN_MOTION":15.08841989,"ECCENTRICITY":0.00014793,"INCLINATION":53.2182,"RA_OF_ASC_NODE":43.301,"ARG_OF_PERICENTER":88.6737,"MEAN_ANOMALY":271.4425,"EPHEMERIS_TYPE":0,"CLASSIFICATION_TYPE":"U","NORAD_CAT_ID":52311,"ELEMENT_SET_NO":999,"REV_AT_EPOCH":21740,"BSTAR":0.00022519367,"MEAN_MOTION_DOT":3.298e-5,"MEAN_MOTION_DDOT":0},{"OBJECT_NAME":"STARLINK-3752","OBJECT_ID":"2022-041BD","EPOCH":"2026-03-19T22:07:48.972576","MEAN_MOTION":15.08830818,"ECCENTRICITY":0.00014117,"INCLINATION":53.2181,"RA_OF_ASC_NODE":43.1368,"ARG_OF_PERICENTER":85.3201,"MEAN_ANOMALY":274.7952,"EPHEMERIS_TYPE":0,"CLASSIFICATION_TYPE":"U","NORAD_CAT_ID":52312,"ELEMENT_SET_NO":999,"REV_AT_EPOCH":21741,"BSTAR":2.4007817e-5,"MEAN_MOTION_DOT":9.4e-7,"MEAN_MOTION_DDOT":0},{"OBJECT_NAME":"STARLINK-3749","OBJECT_ID":"2022-041BE","EPOCH":"2026-03-19T22:13:07.420512","MEAN_MOTION":15.08836473,"ECCENTRICITY":0.00013645,"INCLINATION":53.2179,"RA_OF_ASC_NODE":43.1691,"ARG_OF_PERICENTER":85.4301,"MEAN_ANOMALY":274.6847,"EPHEMERIS_TYPE":0,"CLASSIFICATION_TYPE":"U","NORAD_CAT_ID":52313,"ELEMENT_SET_NO":999,"REV_AT_EPOCH":21741,"BSTAR":3.752126e-6,"MEAN_MOTION_DOT":-2.28e-6,"MEAN_MOTION_DDOT":0},{"OBJECT_NAME":"STARLINK-3889","OBJECT_ID":"2022-045A","EPOCH":"2026-03-19T15:35:42.121248","MEAN_MOTION":15.08824079,"ECCENTRICITY":9.552e-5,"INCLINATION":53.2156,"RA_OF_ASC_NODE":164.4092,"ARG_OF_PERICENTER":70.756,"MEAN_ANOMALY":289.3536,"EPHEMERIS_TYPE":0,"CLASSIFICATION_TYPE":"U","NORAD_CAT_ID":52331,"ELEMENT_SET_NO":999,"REV_AT_EPOCH":21714,"BSTAR":0.00011516513,"MEAN_MOTION_DOT":1.545e-5,"MEAN_MOTION_DDOT":0},{"OBJECT_NAME":"STARLINK-3831","OBJECT_ID":"2022-045B","EPOCH":"2026-03-19T12:42:11.687616","MEAN_MOTION":15.08833937,"ECCENTRICITY":0.00013899,"INCLINATION":53.2171,"RA_OF_ASC_NODE":164.9605,"ARG_OF_PERICENTER":85.2645,"MEAN_ANOMALY":274.8506,"EPHEMERIS_TYPE":0,"CLASSIFICATION_TYPE":"U","NORAD_CAT_ID":52332,"ELEMENT_SET_NO":999,"REV_AT_EPOCH":21712,"BSTAR":-0.00022704534,"MEAN_MOTION_DOT":-3.899e-5,"MEAN_MOTION_DDOT":0},{"OBJECT_NAME":"STARLINK-3847","OBJECT_ID":"2022-045C","EPOCH":"2026-03-19T15:46:16.438080","MEAN_MOTION":15.08839596,"ECCENTRICITY":0.00011514,"INCLINATION":53.2163,"RA_OF_ASC_NODE":164.3776,"ARG_OF_PERICENTER":89.4941,"MEAN_ANOMALY":270.6184,"EPHEMERIS_TYPE":0,"CLASSIFICATION_TYPE":"U","NORAD_CAT_ID":52333,"ELEMENT_SET_NO":999,"REV_AT_EPOCH":21713,"BSTAR":-1.724125e-6,"MEAN_MOTION_DOT":-3.15e-6,"MEAN_MOTION_DDOT":0},{"OBJECT_NAME":"STARLINK-3880","OBJECT_ID":"2022-045D","EPOCH":"2026-03-19T09:08:50.189280","MEAN_MOTION":15.08826397,"ECCENTRICITY":0.00013103,"INCLINATION":53.2161,"RA_OF_ASC_NODE":165.6143,"ARG_OF_PERICENTER":100.5229,"MEAN_ANOMALY":259.5911,"EPHEMERIS_TYPE":0,"CLASSIFICATION_TYPE":"U","NORAD_CAT_ID":52334,"ELEMENT_SET_NO":999,"REV_AT_EPOCH":21709,"BSTAR":0.00026152484,"MEAN_MOTION_DOT":3.875e-5,"MEAN_MOTION_DDOT":0},{"OBJECT_NAME":"STARLINK-3814","OBJECT_ID":"2022-045E","EPOCH":"2026-03-19T15:25:05.418048","MEAN_MOTION":15.0882598,"ECCENTRICITY":0.00014357,"INCLINATION":53.216,"RA_OF_ASC_NODE":164.4416,"ARG_OF_PERICENTER":100.1885,"MEAN_ANOMALY":259.927,"EPHEMERIS_TYPE":0,"CLASSIFICATION_TYPE":"U","NORAD_CAT_ID":52335,"ELEMENT_SET_NO":999,"REV_AT_EPOCH":21714,"BSTAR":0.00018432141,"MEAN_MOTION_DOT":2.646e-5,"MEAN_MOTION_DDOT":0},{"OBJECT_NAME":"STARLINK-3823","OBJECT_ID":"2022-045F","EPOCH":"2026-03-19T14:47:59.123328","MEAN_MOTION":15.08819192,"ECCENTRICITY":0.0001136,"INCLINATION":53.2156,"RA_OF_ASC_NODE":164.3541,"ARG_OF_PERICENTER":87.0337,"MEAN_ANOMALY":273.0786,"EPHEMERIS_TYPE":0,"CLASSIFICATION_TYPE":"U","NORAD_CAT_ID":52336,"ELEMENT_SET_NO":999,"REV_AT_EPOCH":21714,"BSTAR":-5.2620002e-5,"MEAN_MOTION_DOT":-1.125e-5,"MEAN_MOTION_DDOT":0},{"OBJECT_NAME":"STARLINK-3797","OBJECT_ID":"2022-045G","EPOCH":"2026-03-19T09:19:26.048352","MEAN_MOTION":15.08839463,"ECCENTRICITY":0.00011207,"INCLINATION":53.2162,"RA_OF_ASC_NODE":165.5827,"ARG_OF_PERICENTER":93.1374,"MEAN_ANOMALY":266.9746,"EPHEMERIS_TYPE":0,"CLASSIFICATION_TYPE":"U","NORAD_CAT_ID":52337,"ELEMENT_SET_NO":999,"REV_AT_EPOCH":21710,"BSTAR":-2.4150926e-5,"MEAN_MOTION_DOT":-6.72e-6,"MEAN_MOTION_DDOT":0},{"OBJECT_NAME":"STARLINK-3792","OBJECT_ID":"2022-045J","EPOCH":"2026-03-19T15:51:30.846816","MEAN_MOTION":15.08837971,"ECCENTRICITY":0.00011805,"INCLINATION":53.2163,"RA_OF_ASC_NODE":164.0018,"ARG_OF_PERICENTER":91.0148,"MEAN_ANOMALY":269.098,"EPHEMERIS_TYPE":0,"CLASSIFICATION_TYPE":"U","NORAD_CAT_ID":52339,"ELEMENT_SET_NO":999,"REV_AT_EPOCH":21715,"BSTAR":2.8551754e-5,"MEAN_MOTION_DOT":1.67e-6,"MEAN_MOTION_DDOT":0},{"OBJECT_NAME":"STARLINK-3818","OBJECT_ID":"2022-045K","EPOCH":"2026-03-19T14:12:13.125312","MEAN_MOTION":15.08840749,"ECCENTRICITY":0.00011772,"INCLINATION":53.217,"RA_OF_ASC_NODE":154.6665,"ARG_OF_PERICENTER":82.1325,"MEAN_ANOMALY":277.9801,"EPHEMERIS_TYPE":0,"CLASSIFICATION_TYPE":"U","NORAD_CAT_ID":52340,"ELEMENT_SET_NO":999,"REV_AT_EPOCH":21726,"BSTAR":3.0451328e-5,"MEAN_MOTION_DOT":1.97e-6,"MEAN_MOTION_DDOT":0}]
